[{"OBJECT_NAME":"ABS-2","OBJECT_ID":"2014-006A","EPOCH":"2026-04-27T02:50:38.609088","MEAN_MOTION":1.00269751,"ECCENTRICITY":0.000373,"INCLINATION":0.0248,"RA_OF_ASC_NODE":99.5084,"ARG_OF_PERICENTER":301.9486,"MEAN_ANOMALY":291.2383,"EPHEMERIS_TYPE":0,"CLASSIFICATION_TYPE":"U","NORAD_CAT_ID":39508,"ELEMENT_SET_NO":999,"REV_AT_EPOCH":4476,"BSTAR":0,"MEAN_MOTION_DOT":0,"MEAN_MOTION_DDOT":0},{"OBJECT_NAME":"ATHENA-FIDUS","OBJECT_ID":"2014-006B","EPOCH":"2026-04-27T04:56:38.684256","MEAN_MOTION":1.00269864,"ECCENTRICITY":0.00015744,"INCLINATION":0.0146,"RA_OF_ASC_NODE":127.252,"ARG_OF_PERICENTER":278.7975,"MEAN_ANOMALY":281.105,"EPHEMERIS_TYPE":0,"CLASSIFICATION_TYPE":"U","NORAD_CAT_ID":39509,"ELEMENT_SET_NO":999,"REV_AT_EPOCH":4457,"BSTAR":0,"MEAN_MOTION_DOT":0,"MEAN_MOTION_DDOT":0},{"OBJECT_NAME":"TURKSAT 4A","OBJECT_ID":"2014-007A","EPOCH":"2026-04-27T06:12:38.571264","MEAN_MOTION":1.00270744,"ECCENTRICITY":0.0003344,"INCLINATION":0.044,"RA_OF_ASC_NODE":294.67,"ARG_OF_PERICENTER":29.5117,"MEAN_ANOMALY":26.2177,"EPHEMERIS_TYPE":0,"CLASSIFICATION_TYPE":"U","NORAD_CAT_ID":39522,"ELEMENT_SET_NO":999,"REV_AT_EPOCH":4445,"BSTAR":0,"MEAN_MOTION_DOT":1.36e-6,"MEAN_MOTION_DDOT":0},{"OBJECT_NAME":"EXPRESS-AT1","OBJECT_ID":"2014-010A","EPOCH":"2026-04-27T01:49:16.738752","MEAN_MOTION":1.0028901,"ECCENTRICITY":0.00018437,"INCLINATION":0.1266,"RA_OF_ASC_NODE":84.1756,"ARG_OF_PERICENTER":17.2846,"MEAN_ANOMALY":198.5979,"EPHEMERIS_TYPE":0,"CLASSIFICATION_TYPE":"U","NORAD_CAT_ID":39612,"ELEMENT_SET_NO":999,"REV_AT_EPOCH":4430,"BSTAR":0,"MEAN_MOTION_DOT":5.3e-7,"MEAN_MOTION_DDOT":0},{"OBJECT_NAME":"EXPRESS-AT2","OBJECT_ID":"2014-010B","EPOCH":"2026-04-27T04:40:38.535744","MEAN_MOTION":1.00274045,"ECCENTRICITY":4.016e-5,"INCLINATION":0.0104,"RA_OF_ASC_NODE":221.4585,"ARG_OF_PERICENTER":134.1196,"MEAN_ANOMALY":345.7657,"EPHEMERIS_TYPE":0,"CLASSIFICATION_TYPE":"U","NORAD_CAT_ID":39613,"ELEMENT_SET_NO":999,"REV_AT_EPOCH":4398,"BSTAR":0,"MEAN_MOTION_DOT":6.8e-7,"MEAN_MOTION_DDOT":0},{"OBJECT_NAME":"AMAZONAS 4A","OBJECT_ID":"2014-011A","EPOCH":"2026-04-27T11:32:58.130304","MEAN_MOTION":1.00273057,"ECCENTRICITY":0.000252,"INCLINATION":0.0572,"RA_OF_ASC_NODE":165.5948,"ARG_OF_PERICENTER":248.0359,"MEAN_ANOMALY":261.0775,"EPHEMERIS_TYPE":0,"CLASSIFICATION_TYPE":"U","NORAD_CAT_ID":39616,"ELEMENT_SET_NO":999,"REV_AT_EPOCH":4420,"BSTAR":0,"MEAN_MOTION_DOT":-2.62e-6,"MEAN_MOTION_DDOT":0},{"OBJECT_NAME":"ASTRA 5B","OBJECT_ID":"2014-011B","EPOCH":"2026-04-27T08:47:38.636160","MEAN_MOTION":1.00270055,"ECCENTRICITY":0.0002675,"INCLINATION":0.0666,"RA_OF_ASC_NODE":308.4164,"ARG_OF_PERICENTER":66.4979,"MEAN_ANOMALY":355.8425,"EPHEMERIS_TYPE":0,"CLASSIFICATION_TYPE":"U","NORAD_CAT_ID":39617,"ELEMENT_SET_NO":999,"REV_AT_EPOCH":4415,"BSTAR":0,"MEAN_MOTION_DOT":1.27e-6,"MEAN_MOTION_DDOT":0},{"OBJECT_NAME":"IRNSS-1B","OBJECT_ID":"2014-017A","EPOCH":"2026-04-26T22:22:51.537216","MEAN_MOTION":1.00272944,"ECCENTRICITY":0.0023443,"INCLINATION":29.0143,"RA_OF_ASC_NODE":241.2832,"ARG_OF_PERICENTER":182.2406,"MEAN_ANOMALY":182.0336,"EPHEMERIS_TYPE":0,"CLASSIFICATION_TYPE":"U","NORAD_CAT_ID":39635,"ELEMENT_SET_NO":999,"REV_AT_EPOCH":4428,"BSTAR":0,"MEAN_MOTION_DOT":7.4e-7,"MEAN_MOTION_DDOT":0},{"OBJECT_NAME":"LUCH-5V","OBJECT_ID":"2014-023A","EPOCH":"2026-04-27T11:22:48.713088","MEAN_MOTION":1.00271727,"ECCENTRICITY":0.0002294,"INCLINATION":5.0108,"RA_OF_ASC_NODE":70.2422,"ARG_OF_PERICENTER":339.6697,"MEAN_ANOMALY":71.0176,"EPHEMERIS_TYPE":0,"CLASSIFICATION_TYPE":"U","NORAD_CAT_ID":39727,"ELEMENT_SET_NO":999,"REV_AT_EPOCH":4385,"BSTAR":0,"MEAN_MOTION_DOT":-2.74e-6,"MEAN_MOTION_DDOT":0},{"OBJECT_NAME":"KAZSAT-3","OBJECT_ID":"2014-023B","EPOCH":"2026-04-27T03:10:38.767296","MEAN_MOTION":1.00270276,"ECCENTRICITY":3.2e-5,"INCLINATION":0.0178,"RA_OF_ASC_NODE":85.2679,"ARG_OF_PERICENTER":180.7792,"MEAN_ANOMALY":55.2411,"EPHEMERIS_TYPE":0,"CLASSIFICATION_TYPE":"U","NORAD_CAT_ID":39728,"ELEMENT_SET_NO":999,"REV_AT_EPOCH":4194,"BSTAR":0,"MEAN_MOTION_DOT":0,"MEAN_MOTION_DDOT":0},{"OBJECT_NAME":"EUTELSAT 3B","OBJECT_ID":"2014-030A","EPOCH":"2026-04-27T07:53:38.427072","MEAN_MOTION":1.00273004,"ECCENTRICITY":0.0004023,"INCLINATION":0.071,"RA_OF_ASC_NODE":20.1439,"ARG_OF_PERICENTER":12.795,"MEAN_ANOMALY":303.8879,"EPHEMERIS_TYPE":0,"CLASSIFICATION_TYPE":"U","NORAD_CAT_ID":39773,"ELEMENT_SET_NO":999,"REV_AT_EPOCH":4355,"BSTAR":0,"MEAN_MOTION_DOT":1.0e-7,"MEAN_MOTION_DDOT":0},{"OBJECT_NAME":"ASIASAT 8 (AMOS-7)","OBJECT_ID":"2014-046A","EPOCH":"2026-04-27T11:50:52.025280","MEAN_MOTION":1.00270396,"ECCENTRICITY":0.0001582,"INCLINATION":0.0145,"RA_OF_ASC_NODE":114.2985,"ARG_OF_PERICENTER":284.126,"MEAN_ANOMALY":100.08,"EPHEMERIS_TYPE":0,"CLASSIFICATION_TYPE":"U","NORAD_CAT_ID":40107,"ELEMENT_SET_NO":999,"REV_AT_EPOCH":10164,"BSTAR":0,"MEAN_MOTION_DOT":0,"MEAN_MOTION_DDOT":0},{"OBJECT_NAME":"ASIASAT 6","OBJECT_ID":"2014-052A","EPOCH":"2026-04-27T12:17:45.028608","MEAN_MOTION":1.00272632,"ECCENTRICITY":7.85e-5,"INCLINATION":0.0553,"RA_OF_ASC_NODE":76.3276,"ARG_OF_PERICENTER":302.1438,"MEAN_ANOMALY":141.3882,"EPHEMERIS_TYPE":0,"CLASSIFICATION_TYPE":"U","NORAD_CAT_ID":40141,"ELEMENT_SET_NO":999,"REV_AT_EPOCH":4257,"BSTAR":0,"MEAN_MOTION_DOT":-3.71e-6,"MEAN_MOTION_DDOT":0},{"OBJECT_NAME":"OPTUS 10","OBJECT_ID":"2014-054A","EPOCH":"2026-04-27T12:37:26.023296","MEAN_MOTION":1.00271099,"ECCENTRICITY":0.0002013,"INCLINATION":0.1082,"RA_OF_ASC_NODE":22.0032,"ARG_OF_PERICENTER":12.8435,"MEAN_ANOMALY":166.0353,"EPHEMERIS_TYPE":0,"CLASSIFICATION_TYPE":"U","NORAD_CAT_ID":40146,"ELEMENT_SET_NO":999,"REV_AT_EPOCH":4252,"BSTAR":0,"MEAN_MOTION_DOT":-1.56e-6,"MEAN_MOTION_DDOT":0},{"OBJECT_NAME":"MEASAT-3B","OBJECT_ID":"2014-054B","EPOCH":"2026-04-27T07:58:51.879360","MEAN_MOTION":1.00271774,"ECCENTRICITY":0.0003305,"INCLINATION":0.0571,"RA_OF_ASC_NODE":60.7849,"ARG_OF_PERICENTER":337.9686,"MEAN_ANOMALY":27.8159,"EPHEMERIS_TYPE":0,"CLASSIFICATION_TYPE":"U","NORAD_CAT_ID":40147,"ELEMENT_SET_NO":999,"REV_AT_EPOCH":4239,"BSTAR":0,"MEAN_MOTION_DOT":-2.52e-6,"MEAN_MOTION_DDOT":0},{"OBJECT_NAME":"HIMAWARI-8","OBJECT_ID":"2014-060A","EPOCH":"2026-04-27T11:18:50.953248","MEAN_MOTION":1.00268326,"ECCENTRICITY":9.53e-5,"INCLINATION":0.0249,"RA_OF_ASC_NODE":98.9674,"ARG_OF_PERICENTER":303.3516,"MEAN_ANOMALY":123.5216,"EPHEMERIS_TYPE":0,"CLASSIFICATION_TYPE":"U","NORAD_CAT_ID":40267,"ELEMENT_SET_NO":999,"REV_AT_EPOCH":4225,"BSTAR":0,"MEAN_MOTION_DOT":0,"MEAN_MOTION_DDOT":0},{"OBJECT_NAME":"IRNSS-1C","OBJECT_ID":"2014-061A","EPOCH":"2026-04-27T00:13:40.908000","MEAN_MOTION":1.00269611,"ECCENTRICITY":0.00215748,"INCLINATION":6.3873,"RA_OF_ASC_NODE":89.9018,"ARG_OF_PERICENTER":357.9703,"MEAN_ANOMALY":213.5568,"EPHEMERIS_TYPE":0,"CLASSIFICATION_TYPE":"U","NORAD_CAT_ID":40269,"ELEMENT_SET_NO":999,"REV_AT_EPOCH":4217,"BSTAR":0,"MEAN_MOTION_DOT":-1.66e-6,"MEAN_MOTION_DDOT":0}]
