ABS-2                   
1 39508U 14006A   26117.11850242  .00000000  00000+0  00000+0 0  9994
2 39508   0.0248  99.5084 0003730 301.9486 291.2383  1.00269751 44760
ATHENA-FIDUS            
1 39509U 14006B   26117.20600329  .00000000  00000+0  00000+0 0  9994
2 39509   0.0146 127.2520 0001574 278.7975 281.1050  1.00269864 44573
TURKSAT 4A              
1 39522U 14007A   26117.25877976  .00000136  00000+0  00000+0 0  9999
2 39522   0.0440 294.6700 0003344  29.5117  26.2177  1.00270744 44455
EXPRESS-AT1             
1 39612U 14010A   26117.07588818  .00000053  00000+0  00000+0 0  9995
2 39612   0.1266  84.1756 0001843  17.2846 198.5979  1.00289010 44303
EXPRESS-AT2             
1 39613U 14010B   26117.19489046  .00000068  00000+0  00000+0 0  9998
2 39613   0.0104 221.4585 0000401 134.1196 345.7657  1.00274045 43980
AMAZONAS 4A             
1 39616U 14011A   26117.48122836 -.00000262  00000+0  00000+0 0  9992
2 39616   0.0572 165.5948 0002520 248.0359 261.0775  1.00273057 44202
ASTRA 5B                
1 39617U 14011B   26117.36641940  .00000127  00000+0  00000+0 0  9991
2 39617   0.0666 308.4164 0002675  66.4979 355.8425  1.00270055 44159
IRNSS-1B                
1 39635U 14017A   26116.93254094  .00000074  00000+0  00000+0 0  9990
2 39635  29.0143 241.2832 0023443 182.2406 182.0336  1.00272944 44288
LUCH-5V                 
1 39727U 14023A   26117.47417492 -.00000274  00000+0  00000+0 0  9995
2 39727   5.0108  70.2422 0002294 339.6697  71.0176  1.00271727 43850
KAZSAT-3                
1 39728U 14023B   26117.13239314  .00000000  00000+0  00000+0 0  9990
2 39728   0.0178  85.2679 0000320 180.7792  55.2411  1.00270276 41944
EUTELSAT 3B             
1 39773U 14030A   26117.32891698  .00000010  00000+0  00000+0 0  9999
2 39773   0.0710  20.1439 0004023  12.7950 303.8879  1.00273004 43553
ASIASAT 8 (AMOS-7)      
1 40107U 14046A   26117.49365770  .00000000  00000+0  00000+0 0  9993
2 40107   0.0145 114.2985 0001582 284.1260 100.0800  1.00270396101642
ASIASAT 6               
1 40141U 14052A   26117.51232672 -.00000371  00000+0  00000+0 0  9997
2 40141   0.0553  76.3276 0000785 302.1438 141.3882  1.00272632 42575
OPTUS 10                
1 40146U 14054A   26117.52599564 -.00000156  00000+0  00000+0 0  9992
2 40146   0.1082  22.0032 0002013  12.8435 166.0353  1.00271099 42522
MEASAT-3B               
1 40147U 14054B   26117.33254490 -.00000252  00000+0  00000+0 0  9995
2 40147   0.0571  60.7849 0003305 337.9686  27.8159  1.00271774 42397
HIMAWARI-8              
1 40267U 14060A   26117.47142307  .00000000  00000+0  00000+0 0  9993
2 40267   0.0249  98.9674 0000953 303.3516 123.5216  1.00268326 42258
IRNSS-1C                
1 40269U 14061A   26117.00950125 -.00000166  00000+0  00000+0 0  9994
2 40269   6.3873  89.9018 0021574 357.9703 213.5568  1.00269611 42178
